PROBA-1                 
1 26958U 01049B   26167.60565495  .00001497  00000+0  99750-4 0  9990
2 26958  97.9595 176.1175 0056379 123.7254 236.9365 15.07493282343531
CUTE-1 (CO-55)          
1 27844U 03031E   26167.26444772  .00000236  00000+0  12107-3 0  9994
2 27844  98.6736 175.8349 0009468 180.6624 179.4544 14.24335232191540
CUBESAT XI-IV (CO-57)   
1 27848U 03031J   26167.53357567  .00000197  00000+0  10539-3 0  9996
2 27848  98.6766 175.8138 0008978 199.0194 161.0650 14.23620520191286
APRIZESAT 4             
1 35684U 09041D   26167.44786567  .00000570  00000+0  74726-4 0  9990
2 35684  98.1413 242.7536 0042451 325.5055  34.3405 14.83878526911253
APRIZESAT 3             
1 35686U 09041F   26167.43022316  .00001528  00000+0  13601-3 0  9994
2 35686  98.2059 320.6177 0062776  70.1926 290.6047 14.96239329916262
PROBA-2                 
1 36037U 09059B   26167.48394213  .00000144  00000+0  44040-4 0  9992
2 36037  98.2449 350.8464 0011980 284.5599  75.4269 14.54862191881425
APRIZESAT 5             
1 37792U 11044E   26167.53432854  .00000946  00000+0  12663-3 0  9993
2 37792  98.2453 100.5562 0052394   6.4375 353.7498 14.81074783798699
APRIZESAT 6             
1 37793U 11044F   26167.34481084  .00000646  00000+0  98201-4 0  9992
2 37793  98.2365  77.8272 0044498  88.6492  31.0427 14.76914824797021
PROBA-V                 
1 39159U 13021A   26167.48659274  .00000043  00000+0  36927-4 0  9998
2 39159  98.3583 146.1278 0005108 125.0384 235.1276 14.23596846681011
APRIZESAT 7             
1 39416U 13066A   26167.61727597  .00001051  00000+0  10935-3 0  9992
2 39416  97.7709 120.8454 0034954 211.2066 148.7077 14.91562845681140
APRIZESAT 8             
1 39425U 13066K   26167.40157540  .00000819  00000+0  94643-4 0  9994
2 39425  97.8220 114.8803 0044453 289.2471  70.3939 14.87651523679556
BUGSAT-1 (TITA)         
1 40014U 14033E   26167.64009326  .00004123  00000+0  21912-3 0  9999
2 40014  98.0436 260.1565 0027976 180.0184 180.1051 15.15581887655752
SAUDISAT 4              
1 40016U 14033G   26167.64545073  .00000545  00000+0  78359-4 0  9997
2 40016  97.7582 313.7988 0046173  75.7006 284.9327 14.79544162645997
APRIZESAT 9             
1 40018U 14033J   26167.32523743  .00000594  00000+0  94736-4 0  9995
2 40018  97.9059 300.5449 0065622 201.9666 157.8728 14.74213513643439
APRIZESAT 10            
1 40019U 14033K   26167.31032230  .00000355  00000+0  63926-4 0  9993
2 40019  97.9648 294.2893 0077397 276.6969  82.5434 14.70881790642120
TECHDEMOSAT-1 (TDS-1)   
1 40076U 14037H   26167.56341274  .00005977  00000+0  34011-3 0  9995
2 40076  98.3811 159.7144 0004448 268.5104  91.5615 15.13285695648130
TECHNOSAT               
1 42829U 17042E   26167.38491289  .00003441  00000+0  24603-3 0  9994
2 42829  97.4282 325.0727 0018897  96.7321 263.6058 15.04956757486586
FLYING LAPTOP           
1 42831U 17042G   26167.65226267  .00003441  00000+0  27201-3 0  9996
2 42831  97.4681 323.2052 0019558 123.3549 236.9551 15.01143904486374
HAWK-A                  
1 43765U 18099H   26167.10111526  .00005398  00000+0  21837-3 0  9999
2 43765  97.3913 219.3512 0033127 289.9439  69.8231 15.24632636412938
HAWK-B                  
1 43794U 18099AN  26167.58132786  .00004531  00000+0  19436-3 0  9994
2 43794  97.3960 219.2416 0030531 307.1948  52.6502 15.22820066412944
HAWK-C                  
1 43799U 18099AT  26167.60397946  .00006004  00000+0  21715-3 0  9993
2 43799  97.3888 220.7569 0038779 287.9452  71.7562 15.28096428413820
SALSAT                  
1 46495U 20068K   26167.55682940  .00006231  00000+0  21872-3 0  9999
2 46495  97.8845 170.5831 0008036 310.6288  49.4251 15.29791688315269
HAWK-2C                 
1 47502U 21006CT  26167.56544052  .00005256  00000+0  15875-3 0  9996
2 47502  97.2274 211.8877 0006623 187.8573 172.2568 15.34657082299407
HAWK-2A                 
1 47505U 21006CW  26167.56793896  .00005257  00000+0  15871-3 0  9998
2 47505  97.2316 212.5676 0006039 191.0302 169.0810 15.34671913299403
HAWK-2B                 
1 47508U 21006CZ  26167.56350982  .00005855  00000+0  17600-3 0  9992
2 47508  97.2186 210.8960 0006628 189.2721 170.8402 15.34759574299403
HAWK-3B                 
1 48931U 21059BE  26167.49544237  .00033535  00000+0  28563-3 0  9997
2 48931  97.6652   4.1378 0003247 334.6945  25.4157 15.69503498277746
HAWK-3C                 
1 48948U 21059BX  26167.55887576  .00035336  00000+0  30073-3 0  9998
2 48948  97.6775   9.8923 0003592 335.2661  24.8427 15.69511429277750
HAWK-3A                 
1 48957U 21059CG  26167.55874707  .00036241  00000+0  30813-3 0  9998
2 48957  97.6715   7.0977 0003604 337.3917  22.7185 15.69530198277756
HAWK-5C                 
1 52754U 22057Y   26167.39910672  .00015698  00000+0  26833-3 0  9991
2 52754  97.6596 327.0145 0005073  85.4976 274.6854 15.51369783226221
HAWK-5B                 
1 52756U 22057AA  26167.39895597  .00015956  00000+0  27264-3 0  9997
2 52756  97.6606 325.3635 0005728  78.3980 281.7915 15.51371165226227
